[
  {
    "COMMENT": "GENERATED VIA SPACETRACK.ORG API",
    "ORIGINATOR": "18 SPCS",
    "NORAD_CAT_ID": "54754",
    "OBJECT_NAME": "SWOT",
    "OBJECT_TYPE": "PAYLOAD",
    "CLASSIFICATION_TYPE": "U",
    "INTLDES": "22173A",
    "EPOCH": "2023-09-04 01:14:10",
    "EPOCH_MICROSECONDS": "781952",
    "MEAN_MOTION": "14.00169032",
    "ECCENTRICITY": "0.0000247",
    "INCLINATION": "77.6126",
    "RA_OF_ASC_NODE": "328.3383",
    "ARG_OF_PERICENTER": "92.631",
    "MEAN_ANOMALY": "267.487",
    "EPHEMERIS_TYPE": "0",
    "ELEMENT_SET_NO": "999",
    "REV_AT_EPOCH": "3680",
    "BSTAR": "0.00010231",
    "MEAN_MOTION_DOT": "0.00000148",
    "MEAN_MOTION_DDOT": "0",
    "FILE": "3997169",
    "TLE_LINE0": "0 SWOT",
    "TLE_LINE1": "1 54754U 22173A   23247.05151368  .00000148  00000-0  10231-3 0  9990",
    "TLE_LINE2": "2 54754  77.6126 328.3383 0000247  92.6310 267.4870 14.00169032 36807",
    "OBJECT_ID": "2022-173A",
    "OBJECT_NUMBER": "54754",
    "SEMIMAJOR_AXIS": "7271.347",
    "PERIOD": "102.845",
    "APOGEE": "893.391",
    "PERIGEE": "893.032",
    "DECAYED": "0"
  },
  {
    "COMMENT": "GENERATED VIA SPACETRACK.ORG API",
    "ORIGINATOR": "18 SPCS",
    "NORAD_CAT_ID": "54754",
    "OBJECT_NAME": "SWOT",
    "OBJECT_TYPE": "PAYLOAD",
    "CLASSIFICATION_TYPE": "U",
    "INTLDES": "22173A",
    "EPOCH": "2023-09-04 13:14:26",
    "EPOCH_MICROSECONDS": "355552",
    "MEAN_MOTION": "14.00169053",
    "ECCENTRICITY": "0.0000241",
    "INCLINATION": "77.6125",
    "RA_OF_ASC_NODE": "327.6632",
    "ARG_OF_PERICENTER": "92.7179",
    "MEAN_ANOMALY": "267.4",
    "EPHEMERIS_TYPE": "0",
    "ELEMENT_SET_NO": "999",
    "REV_AT_EPOCH": "3687",
    "BSTAR": "0.000087918",
    "MEAN_MOTION_DOT": "0.00000127",
    "MEAN_MOTION_DDOT": "0",
    "FILE": "3997503",
    "TLE_LINE0": "0 SWOT",
    "TLE_LINE1": "1 54754U 22173A   23247.55169393  .00000127  00000-0  87918-4 0  9996",
    "TLE_LINE2": "2 54754  77.6125 327.6632 0000241  92.7179 267.4000 14.00169053 36878",
    "OBJECT_ID": "2022-173A",
    "OBJECT_NUMBER": "54754",
    "SEMIMAJOR_AXIS": "7271.347",
    "PERIOD": "102.845",
    "APOGEE": "893.387",
    "PERIGEE": "893.037",
    "DECAYED": "0"
  },
  {
    "COMMENT": "GENERATED VIA SPACETRACK.ORG API",
    "ORIGINATOR": "18 SPCS",
    "NORAD_CAT_ID": "54754",
    "OBJECT_NAME": "SWOT",
    "OBJECT_TYPE": "PAYLOAD",
    "CLASSIFICATION_TYPE": "U",
    "INTLDES": "22173A",
    "EPOCH": "2023-09-05 04:40:29",
    "EPOCH_MICROSECONDS": "222688",
    "MEAN_MOTION": "14.00169182",
    "ECCENTRICITY": "0.0000236",
    "INCLINATION": "77.6124",
    "RA_OF_ASC_NODE": "326.7952",
    "ARG_OF_PERICENTER": "92.0798",
    "MEAN_ANOMALY": "268.0381",
    "EPHEMERIS_TYPE": "0",
    "ELEMENT_SET_NO": "999",
    "REV_AT_EPOCH": "3696",
    "BSTAR": "0.000078448",
    "MEAN_MOTION_DOT": "0.00000113",
    "MEAN_MOTION_DDOT": "0",
    "FILE": "3998044",
    "TLE_LINE0": "0 SWOT",
    "TLE_LINE1": "1 54754U 22173A   23248.19478267  .00000113  00000-0  78448-4 0  9993",
    "TLE_LINE2": "2 54754  77.6124 326.7952 0000236  92.0798 268.0381 14.00169182 36968",
    "OBJECT_ID": "2022-173A",
    "OBJECT_NUMBER": "54754",
    "SEMIMAJOR_AXIS": "7271.346",
    "PERIOD": "102.845",
    "APOGEE": "893.383",
    "PERIGEE": "893.040",
    "DECAYED": "0"
  },
  {
    "COMMENT": "GENERATED VIA SPACETRACK.ORG API",
    "ORIGINATOR": "18 SPCS",
    "NORAD_CAT_ID": "54754",
    "OBJECT_NAME": "SWOT",
    "OBJECT_TYPE": "PAYLOAD",
    "CLASSIFICATION_TYPE": "U",
    "INTLDES": "22173A",
    "EPOCH": "2023-09-05 13:14:57",
    "EPOCH_MICROSECONDS": "476832",
    "MEAN_MOTION": "14.00169248",
    "ECCENTRICITY": "0.0000226",
    "INCLINATION": "77.6123",
    "RA_OF_ASC_NODE": "326.313",
    "ARG_OF_PERICENTER": "92.1271",
    "MEAN_ANOMALY": "267.9906",
    "EPHEMERIS_TYPE": "0",
    "ELEMENT_SET_NO": "999",
    "REV_AT_EPOCH": "3701",
    "BSTAR": "0.000076575",
    "MEAN_MOTION_DOT": "0.0000011",
    "MEAN_MOTION_DDOT": "0",
    "FILE": "3998343",
    "TLE_LINE0": "0 SWOT",
    "TLE_LINE1": "1 54754U 22173A   23248.55205413  .00000110  00000-0  76575-4 0  9990",
    "TLE_LINE2": "2 54754  77.6123 326.3130 0000226  92.1271 267.9906 14.00169248 37018",
    "OBJECT_ID": "2022-173A",
    "OBJECT_NUMBER": "54754",
    "SEMIMAJOR_AXIS": "7271.346",
    "PERIOD": "102.845",
    "APOGEE": "893.375",
    "PERIGEE": "893.047",
    "DECAYED": "0"
  },
  {
    "COMMENT": "GENERATED VIA SPACETRACK.ORG API",
    "ORIGINATOR": "18 SPCS",
    "NORAD_CAT_ID": "54754",
    "OBJECT_NAME": "SWOT",
    "OBJECT_TYPE": "PAYLOAD",
    "CLASSIFICATION_TYPE": "U",
    "INTLDES": "22173A",
    "EPOCH": "2023-09-06 11:32:34",
    "EPOCH_MICROSECONDS": "926720",
    "MEAN_MOTION": "14.0016951",
    "ECCENTRICITY": "0.0000211",
    "INCLINATION": "77.6122",
    "RA_OF_ASC_NODE": "325.0592",
    "ARG_OF_PERICENTER": "91.3051",
    "MEAN_ANOMALY": "268.8125",
    "EPHEMERIS_TYPE": "0",
    "ELEMENT_SET_NO": "999",
    "REV_AT_EPOCH": "3714",
    "BSTAR": "0.00007258",
    "MEAN_MOTION_DOT": "0.00000104",
    "MEAN_MOTION_DDOT": "0",
    "FILE": "3999078",
    "TLE_LINE0": "0 SWOT",
    "TLE_LINE1": "1 54754U 22173A   23249.48095980  .00000104  00000-0  72580-4 0  9994",
    "TLE_LINE2": "2 54754  77.6122 325.0592 0000211  91.3051 268.8125 14.00169510 37145",
    "OBJECT_ID": "2022-173A",
    "OBJECT_NUMBER": "54754",
    "SEMIMAJOR_AXIS": "7271.345",
    "PERIOD": "102.845",
    "APOGEE": "893.364",
    "PERIGEE": "893.057",
    "DECAYED": "0"
  },
  {
    "COMMENT": "GENERATED VIA SPACETRACK.ORG API",
    "ORIGINATOR": "18 SPCS",
    "NORAD_CAT_ID": "54754",
    "OBJECT_NAME": "SWOT",
    "OBJECT_TYPE": "PAYLOAD",
    "CLASSIFICATION_TYPE": "U",
    "INTLDES": "22173A",
    "EPOCH": "2023-09-06 11:32:34",
    "EPOCH_MICROSECONDS": "926720",
    "MEAN_MOTION": "14.0016951",
    "ECCENTRICITY": "0.0000211",
    "INCLINATION": "77.6122",
    "RA_OF_ASC_NODE": "325.0592",
    "ARG_OF_PERICENTER": "91.3051",
    "MEAN_ANOMALY": "268.8125",
    "EPHEMERIS_TYPE": "0",
    "ELEMENT_SET_NO": "999",
    "REV_AT_EPOCH": "3714",
    "BSTAR": "0.00007258",
    "MEAN_MOTION_DOT": "0.00000104",
    "MEAN_MOTION_DDOT": "0",
    "FILE": "3999158",
    "TLE_LINE0": "0 SWOT",
    "TLE_LINE1": "1 54754U 22173A   23249.48095980  .00000104  00000-0  72580-4 0  9994",
    "TLE_LINE2": "2 54754  77.6122 325.0592 0000211  91.3051 268.8125 14.00169510 37145",
    "OBJECT_ID": "2022-173A",
    "OBJECT_NUMBER": "54754",
    "SEMIMAJOR_AXIS": "7271.345",
    "PERIOD": "102.845",
    "APOGEE": "893.364",
    "PERIGEE": "893.057",
    "DECAYED": "0"
  },
  {
    "COMMENT": "GENERATED VIA SPACETRACK.ORG API",
    "ORIGINATOR": "18 SPCS",
    "NORAD_CAT_ID": "54754",
    "OBJECT_NAME": "SWOT",
    "OBJECT_TYPE": "PAYLOAD",
    "CLASSIFICATION_TYPE": "U",
    "INTLDES": "22173A",
    "EPOCH": "2023-09-06 20:07:03",
    "EPOCH_MICROSECONDS": "172224",
    "MEAN_MOTION": "14.00169581",
    "ECCENTRICITY": "0.0000203",
    "INCLINATION": "77.6121",
    "RA_OF_ASC_NODE": "324.577",
    "ARG_OF_PERICENTER": "89.9504",
    "MEAN_ANOMALY": "270.1671",
    "EPHEMERIS_TYPE": "0",
    "ELEMENT_SET_NO": "999",
    "REV_AT_EPOCH": "3719",
    "BSTAR": "0.000058702",
    "MEAN_MOTION_DOT": "0.00000084",
    "MEAN_MOTION_DDOT": "0",
    "FILE": "3999376",
    "TLE_LINE0": "0 SWOT",
    "TLE_LINE1": "1 54754U 22173A   23249.83823116  .00000084  00000-0  58702-4 0  9990",
    "TLE_LINE2": "2 54754  77.6121 324.5770 0000203  89.9504 270.1671 14.00169581 37198",
    "OBJECT_ID": "2022-173A",
    "OBJECT_NUMBER": "54754",
    "SEMIMAJOR_AXIS": "7271.345",
    "PERIOD": "102.845",
    "APOGEE": "893.358",
    "PERIGEE": "893.062",
    "DECAYED": "0"
  },
  {
    "COMMENT": "GENERATED VIA SPACETRACK.ORG API",
    "ORIGINATOR": "18 SPCS",
    "NORAD_CAT_ID": "54754",
    "OBJECT_NAME": "SWOT",
    "OBJECT_TYPE": "PAYLOAD",
    "CLASSIFICATION_TYPE": "U",
    "INTLDES": "22173A",
    "EPOCH": "2023-09-07 13:15:59",
    "EPOCH_MICROSECONDS": "672736",
    "MEAN_MOTION": "14.00169581",
    "ECCENTRICITY": "0.0000191",
    "INCLINATION": "77.612",
    "RA_OF_ASC_NODE": "323.6126",
    "ARG_OF_PERICENTER": "88.2816",
    "MEAN_ANOMALY": "271.8358",
    "EPHEMERIS_TYPE": "0",
    "ELEMENT_SET_NO": "999",
    "REV_AT_EPOCH": "3729",
    "BSTAR": "0.000026528",
    "MEAN_MOTION_DOT": "0.00000037",
    "MEAN_MOTION_DDOT": "0",
    "FILE": "4000037",
    "TLE_LINE0": "0 SWOT",
    "TLE_LINE1": "1 54754U 22173A   23250.55277399  .00000037  00000-0  26528-4 0  9996",
    "TLE_LINE2": "2 54754  77.6120 323.6126 0000191  88.2816 271.8358 14.00169581 37297",
    "OBJECT_ID": "2022-173A",
    "OBJECT_NUMBER": "54754",
    "SEMIMAJOR_AXIS": "7271.345",
    "PERIOD": "102.845",
    "APOGEE": "893.349",
    "PERIGEE": "893.071",
    "DECAYED": "0"
  },
  {
    "COMMENT": "GENERATED VIA SPACETRACK.ORG API",
    "ORIGINATOR": "18 SPCS",
    "NORAD_CAT_ID": "54754",
    "OBJECT_NAME": "SWOT",
    "OBJECT_TYPE": "PAYLOAD",
    "CLASSIFICATION_TYPE": "U",
    "INTLDES": "22173A",
    "EPOCH": "2023-09-07 18:24:40",
    "EPOCH_MICROSECONDS": "619520",
    "MEAN_MOTION": "14.00169605",
    "ECCENTRICITY": "0.0000187",
    "INCLINATION": "77.612",
    "RA_OF_ASC_NODE": "323.3233",
    "ARG_OF_PERICENTER": "87.2889",
    "MEAN_ANOMALY": "272.8284",
    "EPHEMERIS_TYPE": "0",
    "ELEMENT_SET_NO": "999",
    "REV_AT_EPOCH": "3732",
    "BSTAR": "0.000018651",
    "MEAN_MOTION_DOT": "0.00000025",
    "MEAN_MOTION_DDOT": "0",
    "FILE": "4000131",
    "TLE_LINE0": "0 SWOT",
    "TLE_LINE1": "1 54754U 22173A   23250.76713680  .00000025  00000-0  18651-4 0  9992",
    "TLE_LINE2": "2 54754  77.6120 323.3233 0000187  87.2889 272.8284 14.00169605 37327",
    "OBJECT_ID": "2022-173A",
    "OBJECT_NUMBER": "54754",
    "SEMIMAJOR_AXIS": "7271.345",
    "PERIOD": "102.845",
    "APOGEE": "893.346",
    "PERIGEE": "893.074",
    "DECAYED": "0"
  }
]